STARLINK-35343          
1 67334U 26003A   26036.71732749  .00154217  00000+0  25783-2 0  9997
2 67334  43.0007  48.5436 0000749 290.1764  69.9016 15.50631392  3928
STARLINK-36486          
1 67335U 26003B   26036.39492880  .00103858  00000+0  17510-2 0  9995
2 67335  42.9985  50.4235 0001116 266.6322  93.4411 15.50607307  3872
STARLINK-36480          
1 67336U 26003C   26036.39455355  .00108310  00000+0  18222-2 0  9991
2 67336  42.9971  50.4206 0004302 256.5490 103.4890 15.50640359  3877
STARLINK-36410          
1 67337U 26003D   26036.90961745  .00131813  00000+0  22321-2 0  9993
2 67337  42.9979  47.4057 0004801 228.1668 131.8783 15.50353528  3956
STARLINK-36413          
1 67338U 26003E   26036.71595743  .00145279  00000+0  24318-2 0  9993
2 67338  43.0017  48.5318 0000755  13.5481 346.5399 15.50633197  3925
STARLINK-36451          
1 67339U 26003F   26036.71561017  .00113449  00000+0  19088-2 0  9993
2 67339  43.0016  48.5294 0001062 291.9252  68.1495 15.50622004  3927
STARLINK-36339          
1 67340U 26003G   26036.71526648  .00171617  00000+0  28613-2 0  9991
2 67340  43.0011  48.5262 0001264 274.3272  85.7444 15.50639326  3924
STARLINK-36453          
1 67341U 26003H   26036.71493035  .00142628  00000+0  23889-2 0  9995
2 67341  42.9990  48.5220 0001041  27.0976 332.9938 15.50627126  3920
STARLINK-36432          
1 67342U 26003J   26036.71458347  .00098769  00000+0  16663-2 0  9991
2 67342  42.9983  48.5197 0000568 303.3149  56.7657 15.50612500  3920
STARLINK-36458          
1 67343U 26003K   26036.45657971  .00141442  00000+0  23692-2 0  9994
2 67343  42.9996  50.0243 0000912 192.6833 167.4004 15.50629739  3880
STARLINK-36422          
1 67344U 26003L   26036.45624568  .00071573  00000+0  12154-2 0  9999
2 67344  43.0002  50.0213 0000817 270.5470  89.5297 15.50562578  3880
STARLINK-35676          
1 67345U 26003M   26036.39147838  .00109019  00000+0  18364-2 0  9999
2 67345  42.9939  50.3897 0000801 266.8164  93.2604 15.50608700  3871
