CCSDS_OMM_VERS = 2.0
CREATION_DATE  = 
ORIGINATOR     = 

OBJECT_NAME    = STARLINK-35343
OBJECT_ID      = 2026-003A
CENTER_NAME    = EARTH
REF_FRAME      = TEME
TIME_SYSTEM    = UTC
MEAN_ELEMENT_THEORY = SGP/SGP4

EPOCH          = 2026-02-05T17:12:57.095136
MEAN_MOTION    = 15.50631392
ECCENTRICITY   = .0000749
INCLINATION    = 43.0007
RA_OF_ASC_NODE = 48.5436
ARG_OF_PERICENTER = 290.1764
MEAN_ANOMALY   = 69.9016

EPHEMERIS_TYPE = 0
CLASSIFICATION_TYPE = U
NORAD_CAT_ID   = 67334
ELEMENT_SET_NO = 999
REV_AT_EPOCH   = 392
BSTAR          = .25783E-2
MEAN_MOTION_DOT = .154217E-2
MEAN_MOTION_DDOT = 0

CCSDS_OMM_VERS = 2.0
CREATION_DATE  = 
ORIGINATOR     = 

OBJECT_NAME    = STARLINK-36486
OBJECT_ID      = 2026-003B
CENTER_NAME    = EARTH
REF_FRAME      = TEME
TIME_SYSTEM    = UTC
MEAN_ELEMENT_THEORY = SGP/SGP4

EPOCH          = 2026-02-05T09:28:41.848320
MEAN_MOTION    = 15.50607307
ECCENTRICITY   = .0001116
INCLINATION    = 42.9985
RA_OF_ASC_NODE = 50.4235
ARG_OF_PERICENTER = 266.6322
MEAN_ANOMALY   = 93.4411

EPHEMERIS_TYPE = 0
CLASSIFICATION_TYPE = U
NORAD_CAT_ID   = 67335
ELEMENT_SET_NO = 999
REV_AT_EPOCH   = 387
BSTAR          = .17509869E-2
MEAN_MOTION_DOT = .103858E-2
MEAN_MOTION_DDOT = 0

CCSDS_OMM_VERS = 2.0
CREATION_DATE  = 
ORIGINATOR     = 

OBJECT_NAME    = STARLINK-36480
OBJECT_ID      = 2026-003C
CENTER_NAME    = EARTH
REF_FRAME      = TEME
TIME_SYSTEM    = UTC
MEAN_ELEMENT_THEORY = SGP/SGP4

EPOCH          = 2026-02-05T09:28:09.426720
MEAN_MOTION    = 15.50640359
ECCENTRICITY   = .0004302
INCLINATION    = 42.9971
RA_OF_ASC_NODE = 50.4206
ARG_OF_PERICENTER = 256.5490
MEAN_ANOMALY   = 103.4890

EPHEMERIS_TYPE = 0
CLASSIFICATION_TYPE = U
NORAD_CAT_ID   = 67336
ELEMENT_SET_NO = 999
REV_AT_EPOCH   = 387
BSTAR          = .18222E-2
MEAN_MOTION_DOT = .10831E-2
MEAN_MOTION_DDOT = 0

CCSDS_OMM_VERS = 2.0
CREATION_DATE  = 
ORIGINATOR     = 

OBJECT_NAME    = STARLINK-36410
OBJECT_ID      = 2026-003D
CENTER_NAME    = EARTH
REF_FRAME      = TEME
TIME_SYSTEM    = UTC
MEAN_ELEMENT_THEORY = SGP/SGP4

EPOCH          = 2026-02-05T21:49:50.947680
MEAN_MOTION    = 15.50353528
ECCENTRICITY   = .0004801
INCLINATION    = 42.9979
RA_OF_ASC_NODE = 47.4057
ARG_OF_PERICENTER = 228.1668
MEAN_ANOMALY   = 131.8783

EPHEMERIS_TYPE = 0
CLASSIFICATION_TYPE = U
NORAD_CAT_ID   = 67337
ELEMENT_SET_NO = 999
REV_AT_EPOCH   = 395
BSTAR          = .22321457E-2
MEAN_MOTION_DOT = .131813E-2
MEAN_MOTION_DDOT = 0

CCSDS_OMM_VERS = 2.0
CREATION_DATE  = 
ORIGINATOR     = 

OBJECT_NAME    = STARLINK-36413
OBJECT_ID      = 2026-003E
CENTER_NAME    = EARTH
REF_FRAME      = TEME
TIME_SYSTEM    = UTC
MEAN_ELEMENT_THEORY = SGP/SGP4

EPOCH          = 2026-02-05T17:10:58.721952
MEAN_MOTION    = 15.50633197
ECCENTRICITY   = .0000755
INCLINATION    = 43.0017
RA_OF_ASC_NODE = 48.5318
ARG_OF_PERICENTER = 13.5481
MEAN_ANOMALY   = 346.5399

EPHEMERIS_TYPE = 0
CLASSIFICATION_TYPE = U
NORAD_CAT_ID   = 67338
ELEMENT_SET_NO = 999
REV_AT_EPOCH   = 392
BSTAR          = .24318E-2
MEAN_MOTION_DOT = .145279E-2
MEAN_MOTION_DDOT = 0

CCSDS_OMM_VERS = 2.0
CREATION_DATE  = 
ORIGINATOR     = 

OBJECT_NAME    = STARLINK-36451
OBJECT_ID      = 2026-003F
CENTER_NAME    = EARTH
REF_FRAME      = TEME
TIME_SYSTEM    = UTC
MEAN_ELEMENT_THEORY = SGP/SGP4

EPOCH          = 2026-02-05T17:10:28.718688
MEAN_MOTION    = 15.50622004
ECCENTRICITY   = .0001062
INCLINATION    = 43.0016
RA_OF_ASC_NODE = 48.5294
ARG_OF_PERICENTER = 291.9252
MEAN_ANOMALY   = 68.1495

EPHEMERIS_TYPE = 0
CLASSIFICATION_TYPE = U
NORAD_CAT_ID   = 67339
ELEMENT_SET_NO = 999
REV_AT_EPOCH   = 392
BSTAR          = .19088E-2
MEAN_MOTION_DOT = .113449E-2
MEAN_MOTION_DDOT = 0

CCSDS_OMM_VERS = 2.0
CREATION_DATE  = 
ORIGINATOR     = 

OBJECT_NAME    = STARLINK-36339
OBJECT_ID      = 2026-003G
CENTER_NAME    = EARTH
REF_FRAME      = TEME
TIME_SYSTEM    = UTC
MEAN_ELEMENT_THEORY = SGP/SGP4

EPOCH          = 2026-02-05T17:09:59.023872
MEAN_MOTION    = 15.50639326
ECCENTRICITY   = .0001264
INCLINATION    = 43.0011
RA_OF_ASC_NODE = 48.5262
ARG_OF_PERICENTER = 274.3272
MEAN_ANOMALY   = 85.7444

EPHEMERIS_TYPE = 0
CLASSIFICATION_TYPE = U
NORAD_CAT_ID   = 67340
ELEMENT_SET_NO = 999
REV_AT_EPOCH   = 392
BSTAR          = .28613E-2
MEAN_MOTION_DOT = .171617E-2
MEAN_MOTION_DDOT = 0

CCSDS_OMM_VERS = 2.0
CREATION_DATE  = 
ORIGINATOR     = 

OBJECT_NAME    = STARLINK-36453
OBJECT_ID      = 2026-003H
CENTER_NAME    = EARTH
REF_FRAME      = TEME
TIME_SYSTEM    = UTC
MEAN_ELEMENT_THEORY = SGP/SGP4

EPOCH          = 2026-02-05T17:09:29.982240
MEAN_MOTION    = 15.50627126
ECCENTRICITY   = .0001041
INCLINATION    = 42.9990
RA_OF_ASC_NODE = 48.5220
ARG_OF_PERICENTER = 27.0976
MEAN_ANOMALY   = 332.9938

EPHEMERIS_TYPE = 0
CLASSIFICATION_TYPE = U
NORAD_CAT_ID   = 67341
ELEMENT_SET_NO = 999
REV_AT_EPOCH   = 392
BSTAR          = .23889E-2
MEAN_MOTION_DOT = .142628E-2
MEAN_MOTION_DDOT = 0

CCSDS_OMM_VERS = 2.0
CREATION_DATE  = 
ORIGINATOR     = 

OBJECT_NAME    = STARLINK-36432
OBJECT_ID      = 2026-003J
CENTER_NAME    = EARTH
REF_FRAME      = TEME
TIME_SYSTEM    = UTC
MEAN_ELEMENT_THEORY = SGP/SGP4

EPOCH          = 2026-02-05T17:09:00.011808
MEAN_MOTION    = 15.50612500
ECCENTRICITY   = .0000568
INCLINATION    = 42.9983
RA_OF_ASC_NODE = 48.5197
ARG_OF_PERICENTER = 303.3149
MEAN_ANOMALY   = 56.7657

EPHEMERIS_TYPE = 0
CLASSIFICATION_TYPE = U
NORAD_CAT_ID   = 67342
ELEMENT_SET_NO = 999
REV_AT_EPOCH   = 392
BSTAR          = .16663E-2
MEAN_MOTION_DOT = .98769E-3
MEAN_MOTION_DDOT = 0

CCSDS_OMM_VERS = 2.0
CREATION_DATE  = 
ORIGINATOR     = 

OBJECT_NAME    = STARLINK-36458
OBJECT_ID      = 2026-003K
CENTER_NAME    = EARTH
REF_FRAME      = TEME
TIME_SYSTEM    = UTC
MEAN_ELEMENT_THEORY = SGP/SGP4

EPOCH          = 2026-02-05T10:57:28.486944
MEAN_MOTION    = 15.50629739
ECCENTRICITY   = .00009123
INCLINATION    = 42.9996
RA_OF_ASC_NODE = 50.0243
ARG_OF_PERICENTER = 192.6833
MEAN_ANOMALY   = 167.4004

EPHEMERIS_TYPE = 0
CLASSIFICATION_TYPE = U
NORAD_CAT_ID   = 67343
ELEMENT_SET_NO = 999
REV_AT_EPOCH   = 388
BSTAR          = .2369199E-2
MEAN_MOTION_DOT = .141442E-2
MEAN_MOTION_DDOT = 0

CCSDS_OMM_VERS = 2.0
CREATION_DATE  = 
ORIGINATOR     = 

OBJECT_NAME    = STARLINK-36422
OBJECT_ID      = 2026-003L
CENTER_NAME    = EARTH
REF_FRAME      = TEME
TIME_SYSTEM    = UTC
MEAN_ELEMENT_THEORY = SGP/SGP4

EPOCH          = 2026-02-05T10:56:59.626752
MEAN_MOTION    = 15.50562578
ECCENTRICITY   = .00008173
INCLINATION    = 43.0002
RA_OF_ASC_NODE = 50.0213
ARG_OF_PERICENTER = 270.5470
MEAN_ANOMALY   = 89.5297

EPHEMERIS_TYPE = 0
CLASSIFICATION_TYPE = U
NORAD_CAT_ID   = 67344
ELEMENT_SET_NO = 999
REV_AT_EPOCH   = 388
BSTAR          = .12154266E-2
MEAN_MOTION_DOT = .71573E-3
MEAN_MOTION_DDOT = 0

CCSDS_OMM_VERS = 2.0
CREATION_DATE  = 
ORIGINATOR     = 

OBJECT_NAME    = STARLINK-35676
OBJECT_ID      = 2026-003M
CENTER_NAME    = EARTH
REF_FRAME      = TEME
TIME_SYSTEM    = UTC
MEAN_ELEMENT_THEORY = SGP/SGP4

EPOCH          = 2026-02-05T09:23:43.732032
MEAN_MOTION    = 15.50608700
ECCENTRICITY   = .00008018
INCLINATION    = 42.9939
RA_OF_ASC_NODE = 50.3897
ARG_OF_PERICENTER = 266.8164
MEAN_ANOMALY   = 93.2604

EPHEMERIS_TYPE = 0
CLASSIFICATION_TYPE = U
NORAD_CAT_ID   = 67345
ELEMENT_SET_NO = 999
REV_AT_EPOCH   = 387
BSTAR          = .18364108E-2
MEAN_MOTION_DOT = .109019E-2
MEAN_MOTION_DDOT = 0

